CZ-2C R/B               
1 54039U 22132E   26009.52146280  .00033944  00000+0  46979-3 0  9996
2 54039  97.2952  11.2906 0017711 316.2533  43.7318 15.56856171181153
GSLV R/B                
1 54149U 22138AN  26009.54429966  .00003045  00000+0  26573-3 0  9998
2 54149  87.3830 186.1604 0022204  12.8763 347.3031 14.96308416175081
XRISM                   
1 57800U 23137A   26009.52201488  .00006439  00000+0  37321-3 0  9993
2 57800  31.0030 306.1287 0007823 167.8936 192.1892 15.10719594128832
ACS3                    
1 59588U 24077B   26009.61539159  .00024328  00000+0  20418-1 0  9995
2 59588  97.2467 323.9925 0063973 268.0104  91.3731 13.87005170 86004
SZ-21 MODULE            
1 66515U 25246C   26009.26518544  .00032052  00000+0  32953-3 0  9990
2 66515  41.4746 207.9332 0001420 107.3362 252.7634 15.64195742  8759
