CCSDS_OMM_VERS = 2.0
CREATION_DATE  = 
ORIGINATOR     = 

OBJECT_NAME    = CZ-2C R/B
OBJECT_ID      = 2022-132E
CENTER_NAME    = EARTH
REF_FRAME      = TEME
TIME_SYSTEM    = UTC
MEAN_ELEMENT_THEORY = SGP/SGP4

EPOCH          = 2026-01-09T12:30:54.385920
MEAN_MOTION    = 15.56856171
ECCENTRICITY   = .00177119
INCLINATION    = 97.2952
RA_OF_ASC_NODE = 11.2906
ARG_OF_PERICENTER = 316.2533
MEAN_ANOMALY   = 43.7318

EPHEMERIS_TYPE = 0
CLASSIFICATION_TYPE = U
NORAD_CAT_ID   = 54039
ELEMENT_SET_NO = 999
REV_AT_EPOCH   = 18115
BSTAR          = .46979472E-3
MEAN_MOTION_DOT = .33944E-3
MEAN_MOTION_DDOT = 0

CCSDS_OMM_VERS = 2.0
CREATION_DATE  = 
ORIGINATOR     = 

OBJECT_NAME    = GSLV R/B
OBJECT_ID      = 2022-138AN
CENTER_NAME    = EARTH
REF_FRAME      = TEME
TIME_SYSTEM    = UTC
MEAN_ELEMENT_THEORY = SGP/SGP4

EPOCH          = 2026-01-09T13:03:47.490624
MEAN_MOTION    = 14.96308416
ECCENTRICITY   = .00222042
INCLINATION    = 87.3830
RA_OF_ASC_NODE = 186.1604
ARG_OF_PERICENTER = 12.8763
MEAN_ANOMALY   = 347.3031

EPHEMERIS_TYPE = 0
CLASSIFICATION_TYPE = U
NORAD_CAT_ID   = 54149
ELEMENT_SET_NO = 999
REV_AT_EPOCH   = 17508
BSTAR          = .26572606E-3
MEAN_MOTION_DOT = .3045E-4
MEAN_MOTION_DDOT = 0

CCSDS_OMM_VERS = 2.0
CREATION_DATE  = 
ORIGINATOR     = 

OBJECT_NAME    = XRISM
OBJECT_ID      = 2023-137A
CENTER_NAME    = EARTH
REF_FRAME      = TEME
TIME_SYSTEM    = UTC
MEAN_ELEMENT_THEORY = SGP/SGP4

EPOCH          = 2026-01-09T12:31:42.085632
MEAN_MOTION    = 15.10719594
ECCENTRICITY   = .00078238
INCLINATION    = 31.0030
RA_OF_ASC_NODE = 306.1287
ARG_OF_PERICENTER = 167.8936
MEAN_ANOMALY   = 192.1892

EPHEMERIS_TYPE = 0
CLASSIFICATION_TYPE = U
NORAD_CAT_ID   = 57800
ELEMENT_SET_NO = 999
REV_AT_EPOCH   = 12883
BSTAR          = .37320506E-3
MEAN_MOTION_DOT = .6439E-4
MEAN_MOTION_DDOT = 0

CCSDS_OMM_VERS = 2.0
CREATION_DATE  = 
ORIGINATOR     = 

OBJECT_NAME    = ACS3
OBJECT_ID      = 2024-077B
CENTER_NAME    = EARTH
REF_FRAME      = TEME
TIME_SYSTEM    = UTC
MEAN_ELEMENT_THEORY = SGP/SGP4

EPOCH          = 2026-01-09T14:46:09.833376
MEAN_MOTION    = 13.87005170
ECCENTRICITY   = .00639736
INCLINATION    = 97.2467
RA_OF_ASC_NODE = 323.9925
ARG_OF_PERICENTER = 268.0104
MEAN_ANOMALY   = 91.3731

EPHEMERIS_TYPE = 0
CLASSIFICATION_TYPE = U
NORAD_CAT_ID   = 59588
ELEMENT_SET_NO = 999
REV_AT_EPOCH   = 8600
BSTAR          = .20417585E-1
MEAN_MOTION_DOT = .24328E-3
MEAN_MOTION_DDOT = 0

CCSDS_OMM_VERS = 2.0
CREATION_DATE  = 
ORIGINATOR     = 

OBJECT_NAME    = SZ-21 MODULE
OBJECT_ID      = 2025-246C
CENTER_NAME    = EARTH
REF_FRAME      = TEME
TIME_SYSTEM    = UTC
MEAN_ELEMENT_THEORY = SGP/SGP4

EPOCH          = 2026-01-09T06:21:52.022016
MEAN_MOTION    = 15.64195742
ECCENTRICITY   = .00014209
INCLINATION    = 41.4746
RA_OF_ASC_NODE = 207.9332
ARG_OF_PERICENTER = 107.3362
MEAN_ANOMALY   = 252.7634

EPHEMERIS_TYPE = 0
CLASSIFICATION_TYPE = U
NORAD_CAT_ID   = 66515
ELEMENT_SET_NO = 999
REV_AT_EPOCH   = 875
BSTAR          = .32953403E-3
MEAN_MOTION_DOT = .32052E-3
MEAN_MOTION_DDOT = 0

